SL-3 R/B                
1 19046U 88032B   18331.49152325  .00000015  00000-0  56206-5 0  9998
2 19046  97.4628   5.9217 0036185 342.5716  17.4264 15.02512254651961
SL-16 R/B               
1 19120U 88039B   18330.94902376 -.00000021  00000-0  12684-4 0  9995
2 19120  71.0146 289.7727 0019626 100.1960 260.1380 14.19193384580991
COSMOS 1953             
1 19210U 88050A   18330.76226015  .00000720  00000-0  47834-4 0  9997
2 19210  82.5181 241.6882 0011582 261.3078  98.6838 15.05666415657217
SL-8 R/B                
1 19257U 88053B   18331.19054552  .00000057  00000-0  27871-4 0  9996
2 19257  74.0482 325.8134 0019030  85.4123 348.3725 14.37421830594635
COSMOS 1975             
1 19573U 88093A   18331.12331800  .00000149  00000-0  85710-5 0  9997
2 19573  82.5210 194.5300 0013126 303.4244  56.5727 15.04581417639185
SL-14 R/B               
1 19574U 88093B   18331.22233686  .00000072  00000-0  57599-5 0  9991
2 19574  82.5327  11.3721 0021866 171.5912 253.2204 14.83281874627727
SL-16 R/B               
1 19650U 88102B   18330.58366211  .00000254  00000-0  15324-3 0  9996
2 19650  70.9997 346.1145 0012035 102.3309 257.9162 14.15775981550647
INTERCOSMOS 24          
1 20261U 89080A   18331.16944467  .00000018  00000-0  36332-5 0  9994
2 20261  82.6035  28.0308 1202580 319.1033  32.5585 12.56019706332245
SL-14 R/B               
1 20262U 89080C   18331.20304600  .00000056  00000-0  76876-5 0  9998
2 20262  82.5950  77.9002 1237473 132.7383 238.4807 12.48908006327633
DELTA 1 R/B             
1 20323U 89089B   18331.52763822 -.00000001  00000-0  88104-5 0  9993
2 20323  97.0883 199.2452 0070752 218.1075 141.5107 14.48279698531190
DELTA 2 R/B(1)          
1 20453U 90008B   18330.55905383  .00001221  00000-0  70462-4 0  9993
2 20453  35.6275   8.3059 0285018 239.6824 117.5409 14.84501504526582
COSMOS 2058             
1 20465U 90010A   18331.43502049  .00000293  00000-0  22650-4 0  9993
2 20465  82.4890  99.8397 0014379 319.3257  40.6891 14.97797016564407
SL-14 R/B               
1 20466U 90010B   18331.20386843  .00000078  00000-0  68606-5 0  9994
2 20466  82.5051 238.5296 0021671  47.0950 313.2078 14.81339994555660
SL-14 R/B               
1 20511U 90018B   18331.55150806  .00000056  00000-0  43283-5 0  9999
2 20511  82.5228 182.0627 0017510 175.5899 244.4203 14.79997138550212
HST                     
1 20580U 90037B   18330.74698819  .00000370  00000-0  11592-4 0  9993
2 20580  28.4686 120.4173 0002856  88.7446  35.5900 15.09135163370058
SL-16 R/B               
1 20625U 90046B   18331.56134379 -.00000306  00000-0 -13432-3 0  9995
2 20625  70.9978 120.1666 0013517  14.8147 345.3368 14.14636948472552
COSMOS 2084             
1 20663U 90055A   18331.17484454 -.00000048  00000-0  14136-4 0  9991
2 20663  62.7935 265.4882 0104734 143.4413 217.3890 14.91911441538578
SL-6 R/B(2)             
1 20666U 90055D   18330.92514232 -.00000053  00000-0  13452-4 0  9990
2 20666  62.7845 183.9532 0073006 166.9957 193.3042 14.92191236540452
SL-8 R/B                
1 20775U 90078B   18330.94231200  .00001097  00000-0  51583-4 0  9994
2 20775  82.9263 334.8258 0581195 153.5691 209.6440 14.32677420424297
SL-8 R/B                
1 21088U 91006B   18330.57891275  .00000102  00000-0  88119-4 0  9998
2 21088  82.9415 348.1700 0021140 284.6980 227.4302 13.77100303397912
OKEAN-3                 
1 21397U 91039A   18331.18096443  .00000230  00000-0  19711-4 0  9993
2 21397  82.5215 356.7778 0016307 271.2394  88.6958 14.92738017488540
COSMOS 2151             
1 21422U 91042A   18330.90057124  .00000140  00000-0  11257-4 0  9995
2 21422  82.4997 104.2020 0013499 337.9064  22.1572 14.91999898466102
SL-14 R/B               
1 21423U 91042B   18331.11969957  .00000087  00000-0  85464-5 0  9998
2 21423  82.4941 188.0590 0016757 325.3085  34.7034 14.79748598480651
ERS-1                   
1 21574U 91050A   18331.45070288  .00000003  00000-0  15626-4 0  9991
2 21574  98.5240 277.1381 0032920 176.8885 183.2513 14.37671297433489
ARIANE 40 R/B           
1 21610U 91050F   18331.16050508  .00000014  00000-0  18147-4 0  9996
2 21610  98.5367  33.8288 0003808 148.5576 264.3303 14.40856731436145
INTERCOSMOS 25          
1 21819U 91086A   18330.77957397  .00000023  00000-0 -17790-5 0  9999
2 21819  82.5933 106.7591 1517671  43.5190 327.6045 12.04968132175817
SL-14 R/B               
1 21820U 91086B   18330.93201074  .00000028  00000-0  55502-5 0  9990
2 21820  82.5601 167.1509 1575723 252.4071  89.9291 11.93416675169734
SL-8 R/B                
1 21876U 92008B   18331.46865260  .00000031  00000-0  16212-4 0  9996
2 21876  82.9276  84.5775 0034661   1.7502  67.0229 13.75627529344016
SL-8 R/B                
1 21938U 92020B   18330.96394399 -.00000069  00000-0 -88228-4 0  9992
2 21938  82.9276 328.6330 0029742 157.2650 262.3878 13.75265081335537
SL-16 R/B               
1 22220U 92076B   18330.52095546  .00000137  00000-0  92707-4 0  9993
2 22220  71.0013  29.2146 0013485 199.3861 261.8816 14.16436576345449
SL-16 R/B               
1 22285U 92093B   18331.15936346 -.00000229  00000-0 -93895-4 0  9998
2 22285  71.0200 184.7141 0003116  10.4398 349.6789 14.15025270337223
COSMOS 2228             
1 22286U 92094A   18331.17397837  .00000171  00000-0  15855-4 0  9992
2 22286  82.5222 236.0806 0021424 164.4756 195.7123 14.87991102401009
SL-16 R/B               
1 22566U 93016B   18330.51939209  .00000291  00000-0  17480-3 0  9998
2 22566  71.0092  40.0063 0008718  41.9592 318.2197 14.14956055325853
COSMOS 2242             
1 22626U 93024A   18330.96323564  .00000166  00000-0  15352-4 0  9992
2 22626  82.5225 264.1700 0019260 164.2132 195.9690 14.87852600384624
SL-16 R/B               
1 22803U 93059B   18330.91426939 -.00000188  00000-0 -69953-4 0  9994
2 22803  70.9908 217.3764 0019386 298.3258  61.5910 14.16804722302770
ARIANE 40 R/B           
1 22830U 93061H   18330.95046505  .00000068  00000-0  42908-4 0  9994
2 22830  98.8420   2.3249 0010918 181.2039 178.9118 14.31424719313492
COSMOS 2278             
1 23087U 94023A   18330.46519578 -.00000155  00000-0 -57170-4 0  9995
2 23087  71.0543 336.9249 0006775 144.0773 216.0806 14.13783335269029
SL-16 R/B               
1 23088U 94023B   18330.90530946  .00000279  00000-0  16960-3 0  9993
2 23088  71.0004 254.4437 0003281 340.7384  19.3614 14.14671851269905
SL-16 R/B               
1 23343U 94074B   18331.53144601  .00000007  00000-0  84218-5 0  9994
2 23343  98.0835  16.6735 0007145 166.7164 329.3055 14.76754391294803
SL-16 R/B               
1 23405U 94077B   18331.55760865  .00000217  00000-0  13612-3 0  9995
2 23405  70.9822 184.4974 0004698 253.8483 106.2123 14.15208270240260
ERS-2                   
1 23560U 95021A   18331.20083681  .00000921  00000-0  44002-4 0  9993
2 23560  98.5172  39.4458 0002605 326.7853  33.3216 15.22139728255673
ARIANE 40+ R/B          
1 23561U 95021B   18331.09272241  .00000018  00000-0  21196-4 0  9999
2 23561  98.7841 349.4634 0007683 132.3782 295.8388 14.37898052237113
SL-16 R/B               
1 23705U 95058B   18331.48298547  .00000270  00000-0  16324-3 0  9995
2 23705  71.0223   0.6257 0013943 220.4705 139.5382 14.15118033191924
SL-16 R/B               
1 24298U 96051B   18331.53571190 -.00000115  00000-0 -35748-4 0  9993
2 24298  70.8288  28.2393 0013709 126.1904 234.0486 14.12398599146436
ORBVIEW 2 (SEASTAR)     
1 24883U 97037A   18331.24195891  .00000026  00000-0  25244-4 0  9995
2 24883  98.5734  78.8135 0002193  13.2661 346.8581 14.33479608127560
SL-16 R/B               
1 25400U 98043G   18331.21694817 -.00000013  00000-0  12630-4 0  9990
2 25400  98.5508 269.4245 0009699 186.4241 173.6816 14.25434634 60294
SL-16 R/B               
1 25407U 98045B   18331.14797707  .00000174  00000-0  11258-3 0  9994
2 25407  71.0127  11.9240 0005930 134.4614 225.6995 14.15781747 50913
ISS (ZARYA)             
1 25544U 98067A   18331.69059199  .00001154  00000-0  24793-4 0  9994
2 25544  51.6428 283.9223 0005425  90.4291 326.2487 15.54025527143947
SL-8 R/B                
1 25723U 99022C   18330.71385603  .00006493  00000-0  78148-4 0  9993
2 25723  48.4137 217.5693 0006909  75.0022 285.1691 15.62064579 88442
CZ-4B R/B               
1 25732U 99025C   18330.96811083 -.00000037  00000-0  39878-5 0  9996
2 25732  98.9890 344.2109 0037857  30.8518  27.1340 14.17656955 11279
OKEAN-O                 
1 25860U 99039A   18331.11543985  .00000019  00000-0  10376-4 0  9994
2 25860  98.2237 329.6324 0000826 104.5353 255.5947 14.76577239 41733
SL-16 R/B               
1 25861U 99039B   18330.92847108  .00000011  00000-0  89535-5 0  9993
2 25861  98.1702 312.9922 0015610 179.4478 233.1167 14.78505710 43617
TERRA                   
1 25994U 99068A   18331.20501066 -.00000040  00000-0  12227-5 0  9991
2 25994  98.2149  43.6676 0000715 109.3322 250.8057 14.57130252  7564
ENVISAT                 
1 27386U 02009A   18331.57392178 -.00000018  00000-0  74828-5 0  9999
2 27386  98.1685 357.7972 0001329  95.9922  77.4183 14.37935334877000
IDEFIX & ARIANE 42P R/B 
1 27422U 02021B   18331.14899942 -.00000036  00000-0  18076-5 0  9991
2 27422  98.2750 308.3474 0013325 110.0117 250.2502 14.29266139862098
AQUA                    
1 27424U 02022A   18330.96405277  .00000068  00000-0  25177-4 0  9990
2 27424  98.2118 269.7063 0001129 348.3696  87.9930 14.57111145881086
CZ-4B R/B               
1 27432U 02024C   18330.95035899 -.00000033  00000-0  70301-5 0  9992
2 27432  99.0516 314.4539 0050260 341.8022  70.6121 14.14072660853309
MIDORI II (ADEOS-II)    
1 27597U 02056A   18331.47143907  .00000029  00000-0  29156-4 0  9992
2 27597  98.4444 285.8014 0000826 143.2011 216.9227 14.27375002830787
H-2A R/B                
1 27601U 02056E   18331.14376301  .00000022  00000-0  23052-4 0  9990
2 27601  98.3071  23.6769 0072519 167.5680 246.1376 14.31866127833367
